[{"OBJECT_NAME":"TIANMU-1 10","OBJECT_ID":"2023-101D","EPOCH":"2026-03-09T23:06:46.939392","MEAN_MOTION":15.2921896,"ECCENTRICITY":0.00069292,"INCLINATION":97.2749,"RA_OF_ASC_NODE":122.1027,"ARG_OF_PERICENTER":133.6162,"MEAN_ANOMALY":226.5654,"EPHEMERIS_TYPE":0,"CLASSIFICATION_TYPE":"U","NORAD_CAT_ID":57402,"ELEMENT_SET_NO":999,"REV_AT_EPOCH":14647,"BSTAR":0.00032238884,"MEAN_MOTION_DOT":9.075e-5,"MEAN_MOTION_DDOT":0},{"OBJECT_NAME":"STARLINK-31917","OBJECT_ID":"2024-084R","EPOCH":"2026-03-09T22:56:13.750944","MEAN_MOTION":15.27589228,"ECCENTRICITY":0.0001287,"INCLINATION":42.9983,"RA_OF_ASC_NODE":40.3033,"ARG_OF_PERICENTER":280.0245,"MEAN_ANOMALY":80.0461,"EPHEMERIS_TYPE":0,"CLASSIFICATION_TYPE":"U","NORAD_CAT_ID":59669,"ELEMENT_SET_NO":999,"REV_AT_EPOCH":10441,"BSTAR":0.0001271893,"MEAN_MOTION_DOT":3.24e-5,"MEAN_MOTION_DDOT":0}]
